[{"OBJECT_NAME":"OBJECT D","OBJECT_ID":"2024-092D","EPOCH":"2026-03-09T21:12:33.501312","MEAN_MOTION":15.33078357,"ECCENTRICITY":0.00083397,"INCLINATION":97.6418,"RA_OF_ASC_NODE":198.2302,"ARG_OF_PERICENTER":141.9853,"MEAN_ANOMALY":218.1979,"EPHEMERIS_TYPE":0,"CLASSIFICATION_TYPE":"U","NORAD_CAT_ID":59776,"ELEMENT_SET_NO":999,"REV_AT_EPOCH":10051,"BSTAR":0.00076511005,"MEAN_MOTION_DOT":0.00024443,"MEAN_MOTION_DDOT":0},{"OBJECT_NAME":"STARLINK-35954","OBJECT_ID":"2025-283H","EPOCH":"2026-03-09T21:42:24.809184","MEAN_MOTION":15.30209685,"ECCENTRICITY":0.0001247,"INCLINATION":53.1599,"RA_OF_ASC_NODE":23.4181,"ARG_OF_PERICENTER":91.0266,"MEAN_ANOMALY":269.0877,"EPHEMERIS_TYPE":0,"CLASSIFICATION_TYPE":"U","NORAD_CAT_ID":66885,"ELEMENT_SET_NO":999,"REV_AT_EPOCH":1587,"BSTAR":0.0011301519,"MEAN_MOTION_DOT":0.00033273,"MEAN_MOTION_DDOT":0}]
